start=new Date('2022-05-02T00:00:00.000Z').valueOf();
sats=[{"ELEMENT_SET_NO":"999","PERIOD":"94.958","NORAD_CAT_ID":"51801","EPOCH":"2022-05-01T22:00:01.999584","CLASSIFICATION_TYPE":"U","RA_OF_ASC_NODE":"189.0216","BSTAR":"-0.03941400000000","ARG_OF_PERICENTER":"42.1960","TIME_SYSTEM":"UTC","APOAPSIS":"517.706","RCS_SIZE":"LARGE","SEMIMAJOR_AXIS":"6894.679","MEAN_MOTION":"15.16462547","MEAN_ELEMENT_THEORY":"SGP4","MEAN_MOTION_DOT":"-0.00723051","DECAY_DATE":null,"TLE_LINE1":"1 51801U 22017AK  22121.91668981 -.00723051  00000-0 -39414-1 0  9995","LAUNCH_DATE":"2022-02-25","PERIAPSIS":"515.382","TLE_LINE2":"2 51801  53.2175 189.0216 0001686  42.1960  56.5844 15.16462547  3657","SITE":"AFWTR","EPHEMERIS_TYPE":"0","COUNTRY_CODE":"US","MEAN_MOTION_DDOT":"0.0000000000000","OBJECT_NAME":"STARLINK-3592","INCLINATION":"53.2175","GP_ID":"202476815","OBJECT_ID":"2022-017AK","REV_AT_EPOCH":"365","ECCENTRICITY":"0.00016860","CENTER_NAME":"EARTH","OBJECT_TYPE":"PAYLOAD","MEAN_ANOMALY":"56.5844","FILE":"3424759","REF_FRAME":"TEME"},{"FILE":"3424759","REF_FRAME":"TEME","ECCENTRICITY":"0.00015840","REV_AT_EPOCH":"365","MEAN_ANOMALY":"275.3217","OBJECT_TYPE":"PAYLOAD","CENTER_NAME":"EARTH","GP_ID":"202476404","OBJECT_ID":"2022-017AL","OBJECT_NAME":"STARLINK-3557","MEAN_MOTION_DDOT":"0.0000000000000","INCLINATION":"53.2176","SITE":"AFWTR","PERIAPSIS":"510.430","TLE_LINE2":"2 51802  53.2176 189.0258 0001584  45.3062 275.3217 15.18121138  3655","EPHEMERIS_TYPE":"0","COUNTRY_CODE":"US","LAUNCH_DATE":"2022-02-25","DECAY_DATE":null,"TLE_LINE1":"1 51802U 22017AL  22121.91668981 -.00726093  00000-0 -37744-1 0  9999","MEAN_MOTION_DOT":"-0.00726093","MEAN_ELEMENT_THEORY":"SGP4","MEAN_MOTION":"15.18121138","SEMIMAJOR_AXIS":"6889.656","ARG_OF_PERICENTER":"45.3062","TIME_SYSTEM":"UTC","RCS_SIZE":"LARGE","APOAPSIS":"512.613","BSTAR":"-0.03774400000000","RA_OF_ASC_NODE":"189.0258","EPOCH":"2022-05-01T22:00:01.999584","CLASSIFICATION_TYPE":"U","PERIOD":"94.854","ELEMENT_SET_NO":"999","NORAD_CAT_ID":"51802"},{"ECCENTRICITY":"0.00017220","REV_AT_EPOCH":"365","OBJECT_TYPE":"PAYLOAD","MEAN_ANOMALY":"106.2895","CENTER_NAME":"EARTH","FILE":"3424759","REF_FRAME":"TEME","OBJECT_NAME":"STARLINK-3544","MEAN_MOTION_DDOT":"0.0000000000000","INCLINATION":"53.2175","GP_ID":"202476559","OBJECT_ID":"2022-017AM","LAUNCH_DATE":"2022-02-25","SITE":"AFWTR","PERIAPSIS":"514.195","TLE_LINE2":"2 51803  53.2175 189.0235 0001722  45.4383 106.2895 15.16846112  3659","EPHEMERIS_TYPE":"0","COUNTRY_CODE":"US","MEAN_MOTION_DOT":"-0.00722914","DECAY_DATE":null,"TLE_LINE1":"1 51803U 22017AM  22121.91668981 -.00722914  00000-0 -38974-1 0  9994","SEMIMAJOR_AXIS":"6893.517","MEAN_ELEMENT_THEORY":"SGP4","MEAN_MOTION":"15.16846112","BSTAR":"-0.03897400000000","RA_OF_ASC_NODE":"189.0235","ARG_OF_PERICENTER":"45.4383","TIME_SYSTEM":"UTC","RCS_SIZE":"LARGE","APOAPSIS":"516.569","EPOCH":"2022-05-01T22:00:01.999584","CLASSIFICATION_TYPE":"U","PERIOD":"94.934","ELEMENT_SET_NO":"999","NORAD_CAT_ID":"51803"},{"MEAN_MOTION_DOT":"-0.00046966","DECAY_DATE":null,"TLE_LINE1":"1 51804U 22017AN  22121.91668981 -.00046966  00000-0 -33189-3 0  9996","LAUNCH_DATE":"2022-02-25","TLE_LINE2":"2 51804  53.2157 180.5470 0003901   0.1463 174.6452 15.73200252  3701","PERIAPSIS":"347.135","SITE":"AFWTR","COUNTRY_CODE":"US","EPHEMERIS_TYPE":"0","MEAN_MOTION_DDOT":"0.0000000000000","OBJECT_NAME":"STARLINK-3601","INCLINATION":"53.2157","GP_ID":"202476652","OBJECT_ID":"2022-017AN","REV_AT_EPOCH":"370","ECCENTRICITY":"0.00039010","CENTER_NAME":"EARTH","MEAN_ANOMALY":"174.6452","OBJECT_TYPE":"PAYLOAD","FILE":"3424759","REF_FRAME":"TEME","ELEMENT_SET_NO":"999","PERIOD":"91.533","NORAD_CAT_ID":"51804","EPOCH":"2022-05-01T22:00:01.999584","CLASSIFICATION_TYPE":"U","RA_OF_ASC_NODE":"180.5470","BSTAR":"-0.00033189000000","TIME_SYSTEM":"UTC","ARG_OF_PERICENTER":"0.1463","APOAPSIS":"352.384","RCS_SIZE":"LARGE","SEMIMAJOR_AXIS":"6727.894","MEAN_MOTION":"15.73200252","MEAN_ELEMENT_THEORY":"SGP4"},{"MEAN_MOTION_DDOT":"0.0000000000000","OBJECT_NAME":"STARLINK-3605","INCLINATION":"53.2129","GP_ID":"202476486","OBJECT_ID":"2022-017AP","REV_AT_EPOCH":"370","ECCENTRICITY":"0.00036580","CENTER_NAME":"EARTH","MEAN_ANOMALY":"161.3057","OBJECT_TYPE":"PAYLOAD","FILE":"3424759","REF_FRAME":"TEME","MEAN_MOTION_DOT":"0.00059126","DECAY_DATE":null,"TLE_LINE1":"1 51805U 22017AP  22121.91668981  .00059126  00000-0  42313-3 0  9996","LAUNCH_DATE":"2022-02-25","PERIAPSIS":"347.379","TLE_LINE2":"2 51805  53.2129 180.5525 0003658   2.3296 161.3057 15.73171899  3707","SITE":"AFWTR","EPHEMERIS_TYPE":"0","COUNTRY_CODE":"US","RA_OF_ASC_NODE":"180.5525","BSTAR":"0.00042313000000","ARG_OF_PERICENTER":"2.3296","TIME_SYSTEM":"UTC","APOAPSIS":"352.301","RCS_SIZE":"LARGE","SEMIMAJOR_AXIS":"6727.975","MEAN_MOTION":"15.73171899","MEAN_ELEMENT_THEORY":"SGP4","ELEMENT_SET_NO":"999","PERIOD":"91.535","NORAD_CAT_ID":"51805","EPOCH":"2022-05-01T22:00:01.999584","CLASSIFICATION_TYPE":"U"},{"BSTAR":"-0.01414000000000","RA_OF_ASC_NODE":"182.4275","ARG_OF_PERICENTER":"32.5111","TIME_SYSTEM":"UTC","RCS_SIZE":"LARGE","APOAPSIS":"420.441","SEMIMAJOR_AXIS":"6797.439","MEAN_ELEMENT_THEORY":"SGP4","MEAN_MOTION":"15.49118953","PERIOD":"92.956","ELEMENT_SET_NO":"999","NORAD_CAT_ID":"51806","EPOCH":"2022-05-01T22:00:01.999584","CLASSIFICATION_TYPE":"U","OBJECT_NAME":"STARLINK-3581","MEAN_MOTION_DDOT":"0.0000000000000","INCLINATION":"53.2176","GP_ID":"202476733","OBJECT_ID":"2022-017AQ","ECCENTRICITY":"0.00016720","REV_AT_EPOCH":"370","OBJECT_TYPE":"PAYLOAD","MEAN_ANOMALY":"318.8471","CENTER_NAME":"EARTH","FILE":"3424759","REF_FRAME":"TEME","MEAN_MOTION_DOT":"-0.00723151","TLE_LINE1":"1 51806U 22017AQ  22121.91668981 -.00723151  00000-0 -14140-1 0  9990","DECAY_DATE":null,"LAUNCH_DATE":"2022-02-25","SITE":"AFWTR","TLE_LINE2":"2 51806  53.2176 182.4275 0001672  32.5111 318.8471 15.49118953  3702","PERIAPSIS":"418.168","COUNTRY_CODE":"US","EPHEMERIS_TYPE":"0"},{"DECAY_DATE":null,"TLE_LINE1":"1 51807U 22017AR  22121.91668981 -.00723083  00000-0 -14336-1 0  9992","MEAN_MOTION_DOT":"-0.00723083","COUNTRY_CODE":"US","EPHEMERIS_TYPE":"0","SITE":"AFWTR","PERIAPSIS":"419.399","TLE_LINE2":"2 51807  53.2176 182.4044 0001546  37.7158 310.6024 15.48727251  3705","LAUNCH_DATE":"2022-02-25","OBJECT_ID":"2022-017AR","GP_ID":"202476889","INCLINATION":"53.2176","OBJECT_NAME":"STARLINK-3606","MEAN_MOTION_DDOT":"0.0000000000000","REF_FRAME":"TEME","FILE":"3424759","MEAN_ANOMALY":"310.6024","OBJECT_TYPE":"PAYLOAD","CENTER_NAME":"EARTH","ECCENTRICITY":"0.00015460","REV_AT_EPOCH":"370","NORAD_CAT_ID":"51807","PERIOD":"92.980","ELEMENT_SET_NO":"999","CLASSIFICATION_TYPE":"U","EPOCH":"2022-05-01T22:00:01.999584","RCS_SIZE":"LARGE","APOAPSIS":"421.501","TIME_SYSTEM":"UTC","ARG_OF_PERICENTER":"37.7158","BSTAR":"-0.01433600000000","RA_OF_ASC_NODE":"182.4044","MEAN_ELEMENT_THEORY":"SGP4","MEAN_MOTION":"15.48727251","SEMIMAJOR_AXIS":"6798.585"},{"MEAN_MOTION_DOT":"-0.00723214","TLE_LINE1":"1 51808U 22017AS  22121.91668981 -.00723214  00000-0 -13945-1 0  9994","DECAY_DATE":null,"LAUNCH_DATE":"2022-02-25","SITE":"AFWTR","PERIAPSIS":"417.137","TLE_LINE2":"2 51808  53.2176 182.4511 0001485  39.8905 313.7434 15.49514857  3706","COUNTRY_CODE":"US","EPHEMERIS_TYPE":"0","OBJECT_NAME":"STARLINK-3609","MEAN_MOTION_DDOT":"0.0000000000000","INCLINATION":"53.2176","GP_ID":"202476324","OBJECT_ID":"2022-017AS","ECCENTRICITY":"0.00014850","REV_AT_EPOCH":"370","OBJECT_TYPE":"PAYLOAD","MEAN_ANOMALY":"313.7434","CENTER_NAME":"EARTH","FILE":"3424759","REF_FRAME":"TEME","PERIOD":"92.932","ELEMENT_SET_NO":"999","NORAD_CAT_ID":"51808","EPOCH":"2022-05-01T22:00:01.999584","CLASSIFICATION_TYPE":"U","BSTAR":"-0.01394500000000","RA_OF_ASC_NODE":"182.4511","ARG_OF_PERICENTER":"39.8905","TIME_SYSTEM":"UTC","RCS_SIZE":"LARGE","APOAPSIS":"419.156","SEMIMAJOR_AXIS":"6796.281","MEAN_ELEMENT_THEORY":"SGP4","MEAN_MOTION":"15.49514857"},{"OBJECT_TYPE":"PAYLOAD","MEAN_ANOMALY":"319.4231","CENTER_NAME":"EARTH","ECCENTRICITY":"0.00017700","REV_AT_EPOCH":"370","REF_FRAME":"TEME","FILE":"3424759","INCLINATION":"53.2176","OBJECT_NAME":"STARLINK-3607","MEAN_MOTION_DDOT":"0.0000000000000","OBJECT_ID":"2022-017AT","GP_ID":"202476816","LAUNCH_DATE":"2022-02-25","COUNTRY_CODE":"US","EPHEMERIS_TYPE":"0","SITE":"AFWTR","PERIAPSIS":"418.668","TLE_LINE2":"2 51809  53.2176 182.4164 0001770  30.2614 319.4231 15.48925269  3700","MEAN_MOTION_DOT":"-0.00723254","TLE_LINE1":"1 51809U 22017AT  22121.91668981 -.00723254  00000-0 -14239-1 0  9996","DECAY_DATE":null,"SEMIMAJOR_AXIS":"6798.006","MEAN_ELEMENT_THEORY":"SGP4","MEAN_MOTION":"15.48925269","BSTAR":"-0.01423900000000","RA_OF_ASC_NODE":"182.4164","RCS_SIZE":"LARGE","APOAPSIS":"421.074","TIME_SYSTEM":"UTC","ARG_OF_PERICENTER":"30.2614","CLASSIFICATION_TYPE":"U","EPOCH":"2022-05-01T22:00:01.999584","NORAD_CAT_ID":"51809","PERIOD":"92.968","ELEMENT_SET_NO":"999"},{"CLASSIFICATION_TYPE":"U","EPOCH":"2022-05-01T22:00:01.999584","NORAD_CAT_ID":"51810","PERIOD":"91.536","ELEMENT_SET_NO":"999","SEMIMAJOR_AXIS":"6728.053","MEAN_ELEMENT_THEORY":"SGP4","MEAN_MOTION":"15.73144488","BSTAR":"0.00042314000000","RA_OF_ASC_NODE":"180.5444","RCS_SIZE":"LARGE","APOAPSIS":"352.529","ARG_OF_PERICENTER":"3.6483","TIME_SYSTEM":"UTC","LAUNCH_DATE":"2022-02-25","COUNTRY_CODE":"US","EPHEMERIS_TYPE":"0","SITE":"AFWTR","PERIAPSIS":"347.308","TLE_LINE2":"2 51810  53.2136 180.5444 0003880   3.6483 165.7062 15.73144488  3708","MEAN_MOTION_DOT":"0.00059059","DECAY_DATE":null,"TLE_LINE1":"1 51810U 22017AU  22121.91668981  .00059059  00000-0  42314-3 0  9998","MEAN_ANOMALY":"165.7062","OBJECT_TYPE":"PAYLOAD","CENTER_NAME":"EARTH","ECCENTRICITY":"0.00038800","REV_AT_EPOCH":"370","REF_FRAME":"TEME","FILE":"3424759","INCLINATION":"53.2136","OBJECT_NAME":"STARLINK-3613","MEAN_MOTION_DDOT":"0.0000000000000","OBJECT_ID":"2022-017AU","GP_ID":"202476405"}];
